<?xml version="1.0" encoding="UTF-8"?>
<ndm xmlns:xsi="http://www.w3.org/2001/XMLSchema-instance" xsi:noNamespaceSchemaLocation="https://sanaregistry.org/r/ndmxml_unqualified/ndmxml-2.0.0-master-2.0.xsd">
<omm id="CCSDS_OMM_VERS" version="2.0">
<header><CREATION_DATE/><ORIGINATOR/></header><body><segment><metadata><OBJECT_NAME>IRIDIUM 7</OBJECT_NAME><OBJECT_ID>1997-020B</OBJECT_ID><CENTER_NAME>EARTH</CENTER_NAME><REF_FRAME>TEME</REF_FRAME><TIME_SYSTEM>UTC</TIME_SYSTEM><MEAN_ELEMENT_THEORY>SGP4</MEAN_ELEMENT_THEORY></metadata><data><meanElements><EPOCH>2024-09-20T07:38:53.784384</EPOCH><MEAN_MOTION>14.35431480</MEAN_MOTION><ECCENTRICITY>.0002022</ECCENTRICITY><INCLINATION>86.3910</INCLINATION><RA_OF_ASC_NODE>289.9832</RA_OF_ASC_NODE><ARG_OF_PERICENTER>89.4769</ARG_OF_PERICENTER><MEAN_ANOMALY>270.6659</MEAN_ANOMALY></meanElements><tleParameters><EPHEMERIS_TYPE>0</EPHEMERIS_TYPE><CLASSIFICATION_TYPE>U</CLASSIFICATION_TYPE><NORAD_CAT_ID>24793</NORAD_CAT_ID><ELEMENT_SET_NO>999</ELEMENT_SET_NO><REV_AT_EPOCH>43317</REV_AT_EPOCH><BSTAR>.29795E-3</BSTAR><MEAN_MOTION_DOT>.875E-5</MEAN_MOTION_DOT><MEAN_MOTION_DDOT>0</MEAN_MOTION_DDOT></tleParameters></data></segment></body></omm>
<omm id="CCSDS_OMM_VERS" version="2.0">
<header><CREATION_DATE/><ORIGINATOR/></header><body><segment><metadata><OBJECT_NAME>IRIDIUM 5</OBJECT_NAME><OBJECT_ID>1997-020D</OBJECT_ID><CENTER_NAME>EARTH</CENTER_NAME><REF_FRAME>TEME</REF_FRAME><TIME_SYSTEM>UTC</TIME_SYSTEM><MEAN_ELEMENT_THEORY>SGP4</MEAN_ELEMENT_THEORY></metadata><data><meanElements><EPOCH>2024-09-20T21:05:04.144416</EPOCH><MEAN_MOTION>14.89478569</MEAN_MOTION><ECCENTRICITY>.0119769</ECCENTRICITY><INCLINATION>86.3963</INCLINATION><RA_OF_ASC_NODE>207.3769</RA_OF_ASC_NODE><ARG_OF_PERICENTER>23.6711</ARG_OF_PERICENTER><MEAN_ANOMALY>336.9960</MEAN_ANOMALY></meanElements><tleParameters><EPHEMERIS_TYPE>0</EPHEMERIS_TYPE><CLASSIFICATION_TYPE>U</CLASSIFICATION_TYPE><NORAD_CAT_ID>24795</NORAD_CAT_ID><ELEMENT_SET_NO>999</ELEMENT_SET_NO><REV_AT_EPOCH>44533</REV_AT_EPOCH><BSTAR>.10762E-2</BSTAR><MEAN_MOTION_DOT>.11764E-3</MEAN_MOTION_DOT><MEAN_MOTION_DDOT>0</MEAN_MOTION_DDOT></tleParameters></data></segment></body></omm>
<omm id="CCSDS_OMM_VERS" version="2.0">
<header><CREATION_DATE/><ORIGINATOR/></header><body><segment><metadata><OBJECT_NAME>IRIDIUM 4</OBJECT_NAME><OBJECT_ID>1997-020E</OBJECT_ID><CENTER_NAME>EARTH</CENTER_NAME><REF_FRAME>TEME</REF_FRAME><TIME_SYSTEM>UTC</TIME_SYSTEM><MEAN_ELEMENT_THEORY>SGP4</MEAN_ELEMENT_THEORY></metadata><data><meanElements><EPOCH>2024-09-20T08:00:43.096032</EPOCH><MEAN_MOTION>14.36356938</MEAN_MOTION><ECCENTRICITY>.0002264</ECCENTRICITY><INCLINATION>86.3904</INCLINATION><RA_OF_ASC_NODE>287.0286</RA_OF_ASC_NODE><ARG_OF_PERICENTER>87.9165</ARG_OF_PERICENTER><MEAN_ANOMALY>272.2291</MEAN_ANOMALY></meanElements><tleParameters><EPHEMERIS_TYPE>0</EPHEMERIS_TYPE><CLASSIFICATION_TYPE>U</CLASSIFICATION_TYPE><NORAD_CAT_ID>24796</NORAD_CAT_ID><ELEMENT_SET_NO>999</ELEMENT_SET_NO><REV_AT_EPOCH>43372</REV_AT_EPOCH><BSTAR>.29476E-3</BSTAR><MEAN_MOTION_DOT>.881E-5</MEAN_MOTION_DOT><MEAN_MOTION_DDOT>0</MEAN_MOTION_DDOT></tleParameters></data></segment></body></omm>
<omm id="CCSDS_OMM_VERS" version="2.0">
<header><CREATION_DATE/><ORIGINATOR/></header><body><segment><metadata><OBJECT_NAME>IRIDIUM 914</OBJECT_NAME><OBJECT_ID>1997-030A</OBJECT_ID><CENTER_NAME>EARTH</CENTER_NAME><REF_FRAME>TEME</REF_FRAME><TIME_SYSTEM>UTC</TIME_SYSTEM><MEAN_ELEMENT_THEORY>SGP4</MEAN_ELEMENT_THEORY></metadata><data><meanElements><EPOCH>2024-09-20T09:16:33.968064</EPOCH><MEAN_MOTION>14.40255319</MEAN_MOTION><ECCENTRICITY>.0003487</ECCENTRICITY><INCLINATION>86.3896</INCLINATION><RA_OF_ASC_NODE>296.4216</RA_OF_ASC_NODE><ARG_OF_PERICENTER>65.8662</ARG_OF_PERICENTER><MEAN_ANOMALY>294.2901</MEAN_ANOMALY></meanElements><tleParameters><EPHEMERIS_TYPE>0</EPHEMERIS_TYPE><CLASSIFICATION_TYPE>U</CLASSIFICATION_TYPE><NORAD_CAT_ID>24836</NORAD_CAT_ID><ELEMENT_SET_NO>999</ELEMENT_SET_NO><REV_AT_EPOCH>56828</REV_AT_EPOCH><BSTAR>.32076E-3</BSTAR><MEAN_MOTION_DOT>.1034E-4</MEAN_MOTION_DOT><MEAN_MOTION_DDOT>0</MEAN_MOTION_DDOT></tleParameters></data></segment></body></omm>
<omm id="CCSDS_OMM_VERS" version="2.0">
<header><CREATION_DATE/><ORIGINATOR/></header><body><segment><metadata><OBJECT_NAME>IRIDIUM 16</OBJECT_NAME><OBJECT_ID>1997-030F</OBJECT_ID><CENTER_NAME>EARTH</CENTER_NAME><REF_FRAME>TEME</REF_FRAME><TIME_SYSTEM>UTC</TIME_SYSTEM><MEAN_ELEMENT_THEORY>SGP4</MEAN_ELEMENT_THEORY></metadata><data><meanElements><EPOCH>2024-09-20T10:22:30.438336</EPOCH><MEAN_MOTION>14.38153824</MEAN_MOTION><ECCENTRICITY>.0001577</ECCENTRICITY><INCLINATION>86.4039</INCLINATION><RA_OF_ASC_NODE>318.6383</RA_OF_ASC_NODE><ARG_OF_PERICENTER>160.6853</ARG_OF_PERICENTER><MEAN_ANOMALY>199.4405</MEAN_ANOMALY></meanElements><tleParameters><EPHEMERIS_TYPE>0</EPHEMERIS_TYPE><CLASSIFICATION_TYPE>U</CLASSIFICATION_TYPE><NORAD_CAT_ID>24841</NORAD_CAT_ID><ELEMENT_SET_NO>999</ELEMENT_SET_NO><REV_AT_EPOCH>42822</REV_AT_EPOCH><BSTAR>.32749E-3</BSTAR><MEAN_MOTION_DOT>.1012E-4</MEAN_MOTION_DOT><MEAN_MOTION_DDOT>0</MEAN_MOTION_DDOT></tleParameters></data></segment></body></omm>
<omm id="CCSDS_OMM_VERS" version="2.0">
<header><CREATION_DATE/><ORIGINATOR/></header><body><segment><metadata><OBJECT_NAME>IRIDIUM 911</OBJECT_NAME><OBJECT_ID>1997-030G</OBJECT_ID><CENTER_NAME>EARTH</CENTER_NAME><REF_FRAME>TEME</REF_FRAME><TIME_SYSTEM>UTC</TIME_SYSTEM><MEAN_ELEMENT_THEORY>SGP4</MEAN_ELEMENT_THEORY></metadata><data><meanElements><EPOCH>2024-09-20T13:10:57.275328</EPOCH><MEAN_MOTION>14.46872168</MEAN_MOTION><ECCENTRICITY>.0011996</ECCENTRICITY><INCLINATION>86.4462</INCLINATION><RA_OF_ASC_NODE>317.6296</RA_OF_ASC_NODE><ARG_OF_PERICENTER>277.5046</ARG_OF_PERICENTER><MEAN_ANOMALY>82.4793</MEAN_ANOMALY></meanElements><tleParameters><EPHEMERIS_TYPE>0</EPHEMERIS_TYPE><CLASSIFICATION_TYPE>U</CLASSIFICATION_TYPE><NORAD_CAT_ID>24842</NORAD_CAT_ID><ELEMENT_SET_NO>999</ELEMENT_SET_NO><REV_AT_EPOCH>43608</REV_AT_EPOCH><BSTAR>.35615E-3</BSTAR><MEAN_MOTION_DOT>.1312E-4</MEAN_MOTION_DOT><MEAN_MOTION_DDOT>0</MEAN_MOTION_DDOT></tleParameters></data></segment></body></omm>
<omm id="CCSDS_OMM_VERS" version="2.0">
<header><CREATION_DATE/><ORIGINATOR/></header><body><segment><metadata><OBJECT_NAME>IRIDIUM 17</OBJECT_NAME><OBJECT_ID>1997-034B</OBJECT_ID><CENTER_NAME>EARTH</CENTER_NAME><REF_FRAME>TEME</REF_FRAME><TIME_SYSTEM>UTC</TIME_SYSTEM><MEAN_ELEMENT_THEORY>SGP4</MEAN_ELEMENT_THEORY></metadata><data><meanElements><EPOCH>2024-09-20T12:44:46.252896</EPOCH><MEAN_MOTION>14.37260363</MEAN_MOTION><ECCENTRICITY>.0002842</ECCENTRICITY><INCLINATION>86.4014</INCLINATION><RA_OF_ASC_NODE>348.1592</RA_OF_ASC_NODE><ARG_OF_PERICENTER>128.6627</ARG_OF_PERICENTER><MEAN_ANOMALY>231.4825</MEAN_ANOMALY></meanElements><tleParameters><EPHEMERIS_TYPE>0</EPHEMERIS_TYPE><CLASSIFICATION_TYPE>U</CLASSIFICATION_TYPE><NORAD_CAT_ID>24870</NORAD_CAT_ID><ELEMENT_SET_NO>999</ELEMENT_SET_NO><REV_AT_EPOCH>42484</REV_AT_EPOCH><BSTAR>.39736E-3</BSTAR><MEAN_MOTION_DOT>.1203E-4</MEAN_MOTION_DOT><MEAN_MOTION_DDOT>0</MEAN_MOTION_DDOT></tleParameters></data></segment></body></omm>
<omm id="CCSDS_OMM_VERS" version="2.0">
<header><CREATION_DATE/><ORIGINATOR/></header><body><segment><metadata><OBJECT_NAME>IRIDIUM 920</OBJECT_NAME><OBJECT_ID>1997-034C</OBJECT_ID><CENTER_NAME>EARTH</CENTER_NAME><REF_FRAME>TEME</REF_FRAME><TIME_SYSTEM>UTC</TIME_SYSTEM><MEAN_ELEMENT_THEORY>SGP4</MEAN_ELEMENT_THEORY></metadata><data><meanElements><EPOCH>2024-09-20T10:23:33.551808</EPOCH><MEAN_MOTION>14.40960371</MEAN_MOTION><ECCENTRICITY>.0009516</ECCENTRICITY><INCLINATION>86.3999</INCLINATION><RA_OF_ASC_NODE>328.0639</RA_OF_ASC_NODE><ARG_OF_PERICENTER>247.2586</ARG_OF_PERICENTER><MEAN_ANOMALY>112.7608</MEAN_ANOMALY></meanElements><tleParameters><EPHEMERIS_TYPE>0</EPHEMERIS_TYPE><CLASSIFICATION_TYPE>U</CLASSIFICATION_TYPE><NORAD_CAT_ID>24871</NORAD_CAT_ID><ELEMENT_SET_NO>999</ELEMENT_SET_NO><REV_AT_EPOCH>42772</REV_AT_EPOCH><BSTAR>.31735E-3</BSTAR><MEAN_MOTION_DOT>.1039E-4</MEAN_MOTION_DOT><MEAN_MOTION_DDOT>0</MEAN_MOTION_DDOT></tleParameters></data></segment></body></omm>

</ndm>
