IRIDIUM 7               
1 24793U 97020B   24264.31867806  .00000875  00000+0  29795-3 0  9994
2 24793  86.3910 289.9832 0002022  89.4769 270.6659 14.35431480433170
IRIDIUM 5               
1 24795U 97020D   24264.87852019  .00011764  00000+0  10762-2 0  9999
2 24795  86.3963 207.3769 0119769  23.6711 336.9960 14.89478569445337
IRIDIUM 4               
1 24796U 97020E   24264.33383213  .00000881  00000+0  29476-3 0  9997
2 24796  86.3904 287.0286 0002264  87.9165 272.2291 14.36356938433725
IRIDIUM 914             
1 24836U 97030A   24264.38650426  .00001034  00000+0  32076-3 0  9992
2 24836  86.3896 296.4216 0003487  65.8662 294.2901 14.40255319568280
IRIDIUM 16              
1 24841U 97030F   24264.43229674  .00001012  00000+0  32749-3 0  9994
2 24841  86.4039 318.6383 0001577 160.6853 199.4405 14.38153824428221
IRIDIUM 911             
1 24842U 97030G   24264.54927402  .00001312  00000+0  35615-3 0  9999
2 24842  86.4462 317.6296 0011996 277.5046  82.4793 14.46872168436084
IRIDIUM 17              
1 24870U 97034B   24264.53109089  .00001203  00000+0  39736-3 0  9993
2 24870  86.4014 348.1592 0002842 128.6627 231.4825 14.37260363424848
IRIDIUM 920             
1 24871U 97034C   24264.43302722  .00001039  00000+0  31735-3 0  9990
2 24871  86.3999 328.0639 0009516 247.2586 112.7608 14.40960371427726
